IRIDIUM 36              
1 24967U 97056C   25041.04151730  .00001015  00000+0  33318-3 0  9995
2 24967  86.3946 226.3583 0002267  88.8043 271.3414 14.37402807433955
IRIDIUM 39              
1 25042U 97069D   25041.13987635  .00001196  00000+0  31014-3 0  9996
2 25042  86.3874 265.6088 0018641  17.5029 342.6814 14.48894453430825
IRIDIUM 38              
1 25043U 97069E   25040.96973229  .00000783  00000+0  25310-3 0  9994
2 25043  86.3939 286.7079 0003245 118.4216 241.7309 14.37909061427672
IRIDIUM 42              
1 25077U 97077A   25041.16873459  .00000818  00000+0  27396-3 0  9992
2 25077  86.3953 292.6409 0002233 103.6308 256.5137 14.36163235422966
IRIDIUM 44              
1 25078U 97077B   25040.90966071  .00000821  00000+0  25446-3 0  9995
2 25078  86.3926 274.9963 0003936  86.4535 273.7114 14.40032238425384
IRIDIUM 45              
1 25104U 97082A   25041.21427303  .00023076  00000+0  94998-3 0  9991
2 25104  86.3603 109.2876 0132449  85.8425 275.7941 15.16207404433014
IRIDIUM 24              
1 25105U 97082B   25041.53160892  .00001099  00000+0  32974-3 0  9991
2 25105  86.3945 134.0235 0013086 130.7361 229.4977 14.41879462425217
IRIDIUM 51              
1 25262U 98018A   25041.19870474  .00040070  00000+0  11876-2 0  9990
2 25262  86.3894 118.2083 0105864  15.8969 344.5557 15.29204811427775
